QIANFAN-17              
1 60395U 24140S   25298.96211807  .00000029  00000+0  26200-4 0  9998
2 60395  88.9743 304.3844 0014592 351.9977   8.0939 13.50970434 61688
QIANFAN-18              
1 60396U 24140T   25298.94151881  .00000044  00000+0  49041-4 0  9997
2 60396  88.9735 303.9235 0013326 334.3833  25.6656 13.50970633 61074
QIANFAN-19              
1 61552U 24185A   25298.96796807  .00000821  00000+0  42311-3 0  9991
2 61552  88.9783  83.4091 0009097  97.6394 262.5826 14.14217944 62918
QIANFAN-20              
1 61553U 24185B   25298.95778068  .00000673  00000+0  38225-3 0  9994
2 61553  88.9781  83.6860 0007351 127.3597 232.8257 14.08767161 62765
QIANFAN-21              
1 61554U 24185C   25298.91890059  .00001052  00000+0  46529-3 0  9994
2 61554  88.9699  82.5743 0011715 149.9265 210.2602 14.22504587 63170
QIANFAN-22              
1 61555U 24185D   25298.93484119  .00000319  00000+0  26426-3 0  9992
2 61555  88.9765  84.4782 0008057 131.7943 228.3918 13.86276989 62312
QIANFAN-23              
1 61556U 24185E   25298.94004566  .00000841  00000+0  41787-3 0  9995
2 61556  88.9776  83.2444 0009826 107.2948 252.9316 14.16216182 62986
QIANFAN-24              
1 61557U 24185F   25298.96200456  .00000867  00000+0  37346-3 0  9998
2 61557  88.9757  82.7250 0011647  94.3261 265.9263 14.23711775 63222
