<?xml version="1.0" encoding="UTF-8"?>
<ndm xmlns:xsi="http://www.w3.org/2001/XMLSchema-instance" xsi:noNamespaceSchemaLocation="https://sanaregistry.org/r/ndmxml_unqualified/ndmxml-2.0.0-master-2.0.xsd">
<omm id="CCSDS_OMM_VERS" version="2.0">
<header><CREATION_DATE/><ORIGINATOR/></header><body><segment><metadata><OBJECT_NAME>QIANFAN-17</OBJECT_NAME><OBJECT_ID>2024-140S</OBJECT_ID><CENTER_NAME>EARTH</CENTER_NAME><REF_FRAME>TEME</REF_FRAME><TIME_SYSTEM>UTC</TIME_SYSTEM><MEAN_ELEMENT_THEORY>SGP4</MEAN_ELEMENT_THEORY></metadata><data><meanElements><EPOCH>2025-10-25T23:05:27.001248</EPOCH><MEAN_MOTION>13.50970434</MEAN_MOTION><ECCENTRICITY>.00145928</ECCENTRICITY><INCLINATION>88.9743</INCLINATION><RA_OF_ASC_NODE>304.3844</RA_OF_ASC_NODE><ARG_OF_PERICENTER>351.9977</ARG_OF_PERICENTER><MEAN_ANOMALY>8.0939</MEAN_ANOMALY></meanElements><tleParameters><EPHEMERIS_TYPE>0</EPHEMERIS_TYPE><CLASSIFICATION_TYPE>U</CLASSIFICATION_TYPE><NORAD_CAT_ID>60395</NORAD_CAT_ID><ELEMENT_SET_NO>999</ELEMENT_SET_NO><REV_AT_EPOCH>6168</REV_AT_EPOCH><BSTAR>.26199877E-4</BSTAR><MEAN_MOTION_DOT>.29E-6</MEAN_MOTION_DOT><MEAN_MOTION_DDOT>0</MEAN_MOTION_DDOT></tleParameters></data></segment></body></omm>
<omm id="CCSDS_OMM_VERS" version="2.0">
<header><CREATION_DATE/><ORIGINATOR/></header><body><segment><metadata><OBJECT_NAME>QIANFAN-18</OBJECT_NAME><OBJECT_ID>2024-140T</OBJECT_ID><CENTER_NAME>EARTH</CENTER_NAME><REF_FRAME>TEME</REF_FRAME><TIME_SYSTEM>UTC</TIME_SYSTEM><MEAN_ELEMENT_THEORY>SGP4</MEAN_ELEMENT_THEORY></metadata><data><meanElements><EPOCH>2025-10-25T22:35:47.225184</EPOCH><MEAN_MOTION>13.50970633</MEAN_MOTION><ECCENTRICITY>.00133262</ECCENTRICITY><INCLINATION>88.9735</INCLINATION><RA_OF_ASC_NODE>303.9235</RA_OF_ASC_NODE><ARG_OF_PERICENTER>334.3833</ARG_OF_PERICENTER><MEAN_ANOMALY>25.6656</MEAN_ANOMALY></meanElements><tleParameters><EPHEMERIS_TYPE>0</EPHEMERIS_TYPE><CLASSIFICATION_TYPE>U</CLASSIFICATION_TYPE><NORAD_CAT_ID>60396</NORAD_CAT_ID><ELEMENT_SET_NO>999</ELEMENT_SET_NO><REV_AT_EPOCH>6107</REV_AT_EPOCH><BSTAR>.49041475E-4</BSTAR><MEAN_MOTION_DOT>.44E-6</MEAN_MOTION_DOT><MEAN_MOTION_DDOT>0</MEAN_MOTION_DDOT></tleParameters></data></segment></body></omm>
<omm id="CCSDS_OMM_VERS" version="2.0">
<header><CREATION_DATE/><ORIGINATOR/></header><body><segment><metadata><OBJECT_NAME>QIANFAN-19</OBJECT_NAME><OBJECT_ID>2024-185A</OBJECT_ID><CENTER_NAME>EARTH</CENTER_NAME><REF_FRAME>TEME</REF_FRAME><TIME_SYSTEM>UTC</TIME_SYSTEM><MEAN_ELEMENT_THEORY>SGP4</MEAN_ELEMENT_THEORY></metadata><data><meanElements><EPOCH>2025-10-25T23:13:52.441248</EPOCH><MEAN_MOTION>14.14217944</MEAN_MOTION><ECCENTRICITY>.00090976</ECCENTRICITY><INCLINATION>88.9783</INCLINATION><RA_OF_ASC_NODE>83.4091</RA_OF_ASC_NODE><ARG_OF_PERICENTER>97.6394</ARG_OF_PERICENTER><MEAN_ANOMALY>262.5826</MEAN_ANOMALY></meanElements><tleParameters><EPHEMERIS_TYPE>0</EPHEMERIS_TYPE><CLASSIFICATION_TYPE>U</CLASSIFICATION_TYPE><NORAD_CAT_ID>61552</NORAD_CAT_ID><ELEMENT_SET_NO>999</ELEMENT_SET_NO><REV_AT_EPOCH>6291</REV_AT_EPOCH><BSTAR>.42310511E-3</BSTAR><MEAN_MOTION_DOT>.821E-5</MEAN_MOTION_DOT><MEAN_MOTION_DDOT>0</MEAN_MOTION_DDOT></tleParameters></data></segment></body></omm>
<omm id="CCSDS_OMM_VERS" version="2.0">
<header><CREATION_DATE/><ORIGINATOR/></header><body><segment><metadata><OBJECT_NAME>QIANFAN-20</OBJECT_NAME><OBJECT_ID>2024-185B</OBJECT_ID><CENTER_NAME>EARTH</CENTER_NAME><REF_FRAME>TEME</REF_FRAME><TIME_SYSTEM>UTC</TIME_SYSTEM><MEAN_ELEMENT_THEORY>SGP4</MEAN_ELEMENT_THEORY></metadata><data><meanElements><EPOCH>2025-10-25T22:59:12.250752</EPOCH><MEAN_MOTION>14.08767161</MEAN_MOTION><ECCENTRICITY>.00073513</ECCENTRICITY><INCLINATION>88.9781</INCLINATION><RA_OF_ASC_NODE>83.6860</RA_OF_ASC_NODE><ARG_OF_PERICENTER>127.3597</ARG_OF_PERICENTER><MEAN_ANOMALY>232.8257</MEAN_ANOMALY></meanElements><tleParameters><EPHEMERIS_TYPE>0</EPHEMERIS_TYPE><CLASSIFICATION_TYPE>U</CLASSIFICATION_TYPE><NORAD_CAT_ID>61553</NORAD_CAT_ID><ELEMENT_SET_NO>999</ELEMENT_SET_NO><REV_AT_EPOCH>6276</REV_AT_EPOCH><BSTAR>.38224998E-3</BSTAR><MEAN_MOTION_DOT>.673E-5</MEAN_MOTION_DOT><MEAN_MOTION_DDOT>0</MEAN_MOTION_DDOT></tleParameters></data></segment></body></omm>
<omm id="CCSDS_OMM_VERS" version="2.0">
<header><CREATION_DATE/><ORIGINATOR/></header><body><segment><metadata><OBJECT_NAME>QIANFAN-21</OBJECT_NAME><OBJECT_ID>2024-185C</OBJECT_ID><CENTER_NAME>EARTH</CENTER_NAME><REF_FRAME>TEME</REF_FRAME><TIME_SYSTEM>UTC</TIME_SYSTEM><MEAN_ELEMENT_THEORY>SGP4</MEAN_ELEMENT_THEORY></metadata><data><meanElements><EPOCH>2025-10-25T22:03:13.010976</EPOCH><MEAN_MOTION>14.22504587</MEAN_MOTION><ECCENTRICITY>.00117154</ECCENTRICITY><INCLINATION>88.9699</INCLINATION><RA_OF_ASC_NODE>82.5743</RA_OF_ASC_NODE><ARG_OF_PERICENTER>149.9265</ARG_OF_PERICENTER><MEAN_ANOMALY>210.2602</MEAN_ANOMALY></meanElements><tleParameters><EPHEMERIS_TYPE>0</EPHEMERIS_TYPE><CLASSIFICATION_TYPE>U</CLASSIFICATION_TYPE><NORAD_CAT_ID>61554</NORAD_CAT_ID><ELEMENT_SET_NO>999</ELEMENT_SET_NO><REV_AT_EPOCH>6317</REV_AT_EPOCH><BSTAR>.46529308E-3</BSTAR><MEAN_MOTION_DOT>.1052E-4</MEAN_MOTION_DOT><MEAN_MOTION_DDOT>0</MEAN_MOTION_DDOT></tleParameters></data></segment></body></omm>
<omm id="CCSDS_OMM_VERS" version="2.0">
<header><CREATION_DATE/><ORIGINATOR/></header><body><segment><metadata><OBJECT_NAME>QIANFAN-22</OBJECT_NAME><OBJECT_ID>2024-185D</OBJECT_ID><CENTER_NAME>EARTH</CENTER_NAME><REF_FRAME>TEME</REF_FRAME><TIME_SYSTEM>UTC</TIME_SYSTEM><MEAN_ELEMENT_THEORY>SGP4</MEAN_ELEMENT_THEORY></metadata><data><meanElements><EPOCH>2025-10-25T22:26:10.278816</EPOCH><MEAN_MOTION>13.86276989</MEAN_MOTION><ECCENTRICITY>.00080579</ECCENTRICITY><INCLINATION>88.9765</INCLINATION><RA_OF_ASC_NODE>84.4782</RA_OF_ASC_NODE><ARG_OF_PERICENTER>131.7943</ARG_OF_PERICENTER><MEAN_ANOMALY>228.3918</MEAN_ANOMALY></meanElements><tleParameters><EPHEMERIS_TYPE>0</EPHEMERIS_TYPE><CLASSIFICATION_TYPE>U</CLASSIFICATION_TYPE><NORAD_CAT_ID>61555</NORAD_CAT_ID><ELEMENT_SET_NO>999</ELEMENT_SET_NO><REV_AT_EPOCH>6231</REV_AT_EPOCH><BSTAR>.26425818E-3</BSTAR><MEAN_MOTION_DOT>.319E-5</MEAN_MOTION_DOT><MEAN_MOTION_DDOT>0</MEAN_MOTION_DDOT></tleParameters></data></segment></body></omm>
<omm id="CCSDS_OMM_VERS" version="2.0">
<header><CREATION_DATE/><ORIGINATOR/></header><body><segment><metadata><OBJECT_NAME>QIANFAN-23</OBJECT_NAME><OBJECT_ID>2024-185E</OBJECT_ID><CENTER_NAME>EARTH</CENTER_NAME><REF_FRAME>TEME</REF_FRAME><TIME_SYSTEM>UTC</TIME_SYSTEM><MEAN_ELEMENT_THEORY>SGP4</MEAN_ELEMENT_THEORY></metadata><data><meanElements><EPOCH>2025-10-25T22:33:39.945024</EPOCH><MEAN_MOTION>14.16216182</MEAN_MOTION><ECCENTRICITY>.00098262</ECCENTRICITY><INCLINATION>88.9776</INCLINATION><RA_OF_ASC_NODE>83.2444</RA_OF_ASC_NODE><ARG_OF_PERICENTER>107.2948</ARG_OF_PERICENTER><MEAN_ANOMALY>252.9316</MEAN_ANOMALY></meanElements><tleParameters><EPHEMERIS_TYPE>0</EPHEMERIS_TYPE><CLASSIFICATION_TYPE>U</CLASSIFICATION_TYPE><NORAD_CAT_ID>61556</NORAD_CAT_ID><ELEMENT_SET_NO>999</ELEMENT_SET_NO><REV_AT_EPOCH>6298</REV_AT_EPOCH><BSTAR>.41787125E-3</BSTAR><MEAN_MOTION_DOT>.841E-5</MEAN_MOTION_DOT><MEAN_MOTION_DDOT>0</MEAN_MOTION_DDOT></tleParameters></data></segment></body></omm>
<omm id="CCSDS_OMM_VERS" version="2.0">
<header><CREATION_DATE/><ORIGINATOR/></header><body><segment><metadata><OBJECT_NAME>QIANFAN-24</OBJECT_NAME><OBJECT_ID>2024-185F</OBJECT_ID><CENTER_NAME>EARTH</CENTER_NAME><REF_FRAME>TEME</REF_FRAME><TIME_SYSTEM>UTC</TIME_SYSTEM><MEAN_ELEMENT_THEORY>SGP4</MEAN_ELEMENT_THEORY></metadata><data><meanElements><EPOCH>2025-10-25T23:05:17.193984</EPOCH><MEAN_MOTION>14.23711775</MEAN_MOTION><ECCENTRICITY>.00116479</ECCENTRICITY><INCLINATION>88.9757</INCLINATION><RA_OF_ASC_NODE>82.7250</RA_OF_ASC_NODE><ARG_OF_PERICENTER>94.3261</ARG_OF_PERICENTER><MEAN_ANOMALY>265.9263</MEAN_ANOMALY></meanElements><tleParameters><EPHEMERIS_TYPE>0</EPHEMERIS_TYPE><CLASSIFICATION_TYPE>U</CLASSIFICATION_TYPE><NORAD_CAT_ID>61557</NORAD_CAT_ID><ELEMENT_SET_NO>999</ELEMENT_SET_NO><REV_AT_EPOCH>6322</REV_AT_EPOCH><BSTAR>.37345607E-3</BSTAR><MEAN_MOTION_DOT>.867E-5</MEAN_MOTION_DOT><MEAN_MOTION_DDOT>0</MEAN_MOTION_DDOT></tleParameters></data></segment></body></omm>

</ndm>
